STARLINK-4218           
1 53025U 22076AR  26068.45846469  .00002068  00000+0  14796-3 0  9995
2 53025  53.2165  85.1588 0001384  75.6263 284.4883 15.08843262202953
DISKSAT B               
1 67220U 25305B   26068.81497770  .00012481  00000+0  82401-3 0  9990
2 67220  45.0018 250.2098 0003783 311.4052  48.6498 15.07484556 12311
